From: horizons@ssd.jpl.nasa.gov (Horizons Ephemeris System)
Subject: [Horizons] SMALL BODY #C(500@10)_T(Catalina (C/2018 M1)) (1/1)
Date: February 16, 2021 at 11:04:02 AM PST

Automated mail xmit by MAIL_REQUEST, PID= 27602 Tue Feb 16 11:04:02 2021
++++++++++++++++++++++++++++++++ (part 1 of 1)  +++++++++++++++++++++++++++++++


*******************************************************************************
Ephemeris / MAIL_REQUEST Tue Feb 16 11:04:02 2021 Pasadena, USA  / Horizons
*******************************************************************************
Target body name: Catalina (C/2018 M1)            {source: JPL#7}
Center body name: Sun (10)                        {source: DE431}
Center-site name: BODY CENTER
*******************************************************************************
Start time      : A.D. 2015-Jul-10 00:00:00.0000 TDB
Stop  time      : A.D. 2021-Jul-10 00:00:00.0000 TDB
Step-size       : 20160 minutes
*******************************************************************************
Center geodetic : 0.00000000,0.00000000,0.0000000 {E-lon(deg),Lat(deg),Alt(km)}
Center cylindric: 0.00000000,0.00000000,0.0000000 {E-lon(deg),Dxy(km),Dz(km)}
Center radii    : 696000.0 x 696000.0 x 696000.0 k{Equator, meridian, pole}    
Small perturbers: Yes                             {source: SB431-N16}
Output units    : AU-D
Output type     : GEOMETRIC cartesian states
Output format   : 3 (position, velocity, LT, range, range-rate)
Reference frame : Ecliptic of J2000.0
*******************************************************************************
Initial IAU76/J2000 heliocentric ecliptic osculating elements (au, days, deg.):
 EPOCH=  2458346.5 ! 2018-Aug-16.0000000 (TDB)    RMSW= n.a.                  
  EC= .9387000324892566   QR= 1.303479532255149   TP= 2458309.524439041       
  OM= 339.4633087081097   W= 14.13278563654424    IN= 37.25702429842916       
 Equivalent ICRF heliocentric equatorial cartesian coordinates (au, au/d):
  X= 1.194224310522929E+00  Y= 1.403119865661799E-01  Z= 7.350848717696673E-01
 VX=-4.838685275764688E-03 VY= 1.098923250756682E-02 VZ= 1.618150628579719E-02
Comet physical (GM= km^3/s^2; RAD= km):                                        
  GM= n.a.                RAD= n.a.                                           
  M1=  16.5     M2=  18.1     k1=  6.25   k2=  5.      PHCOF=  .030           
*******************************************************************************
           JDTDB,            Calendar Date (TDB),                      X,                      Y,                      Z,                     VX,                     VY,                     VZ,                     LT,                     RG,                     RR,
**************************************************************************************************************************************************************************************************************************************************************************
$$SOE
2458305.500000000, A.D. 2018-Jul-06 00:00:00.0000,  1.267630744508138E+00, -2.742126407291550E-01,  1.429217139281866E-01,  1.565891362436675E-03,  1.683106743727895E-02,  1.240628459598865E-02,  7.535904846397430E-03,  1.304801476497510E+00, -6.569520131473909E-04,
2458319.500000000, A.D. 2018-Jul-20 00:00:00.0000,  1.272930559775443E+00, -3.602564520505528E-02,  3.139917537869032E-01, -8.042766145826775E-04,  1.712113501853500E-02,  1.198041884234380E-02,  7.575051651797130E-03,  1.311579535738812E+00,  1.617259532273600E-03,
2458333.500000000, A.D. 2018-Aug-03 00:00:00.0000,  1.245758000164657E+00,  2.031328909203204E-01,  4.770885556481664E-01, -3.037803993865262E-03,  1.697604384037320E-02,  1.128105310722667E-02,  7.793289897140811E-03,  1.349366316564314E+00,  3.739596508797120E-03,
2458347.500000000, A.D. 2018-Aug-17 00:00:00.0000,  1.189322831890784E+00,  4.376302971180717E-01,  6.290565020244517E-01, -4.963942556008595E-03,  1.647393497894738E-02,  1.040941060448833E-02,  8.171330124170586E-03,  1.414821952809471E+00,  5.551136840140997E-03,
2458361.500000000, A.D. 2018-Aug-31 00:00:00.0000,  1.108559685835089E+00,  6.633186115580595E-01,  7.682578155517761E-01, -6.508931267609515E-03,  1.573913816561484E-02,  9.473735726810597E-03,  8.680810071348315E-03,  1.503035671118450E+00,  6.987722374394223E-03,
2458375.500000000, A.D. 2018-Sep-14 00:00:00.0000,  1.008813978456265E+00,  8.778007440691121E-01,  8.944114783362677E-01, -7.682250651669310E-03,  1.489059473126956E-02,  8.556216537613411E-03,  9.291607656474644E-03,  1.608791994633461E+00,  8.064306396961644E-03,
2458389.500000000, A.D. 2018-Sep-28 00:00:00.0000,  8.949398856396665E-01,  1.080137121061571E+00,  1.008143489867581E+00, -8.538074762930822E-03,  1.401555968686035E-02,  7.704544410925000E-03,  9.976724208873597E-03,  1.727416248437620E+00,  8.836867745332344E-03,
2458403.500000000, A.D. 2018-Oct-12 00:00:00.0000,  7.709190291563004E-01,  1.270364841864444E+00,  1.110542708542322E+00, -9.142716092488939E-03,  1.316718146076179E-02,  6.938885487862657E-03,  1.071424512477061E-02,  1.855114036510178E+00,  9.371261778056450E-03,
2458417.500000000, A.D. 2018-Oct-26 00:00:00.0000,  6.398295959863651E-01,  1.449072391363317E+00,  1.202849701861312E+00, -9.557149872255151E-03,  1.237273479743921E-02,  6.262397564299541E-03,  1.148738852302586E-02,  1.988979666205596E+00,  9.726979330636399E-03,
2458431.500000000, A.D. 2018-Nov-09 00:00:00.0000,  5.039732875627325E-01,  1.617105003622997E+00,  1.286280720737055E+00, -9.830946997975964E-03,  1.164304314006503E-02,  5.669562222442392E-03,  1.228372204159279E-02,  2.126860540764053E+00,  9.951821859892948E-03,
2458445.500000000, A.D. 2018-Nov-23 00:00:00.0000,  3.650409972055234E-01,  1.775387582478700E+00,  1.361945774933385E+00, -1.000200521564165E-02,  1.097962621970752E-02,  5.151349749934978E-03,  1.309419969270705E-02,  2.267190395956913E+00,  1.008199803626731E-02,
2458459.500000000, A.D. 2018-Dec-07 00:00:00.0000,  2.242643732674028E-01,  1.924829144373377E+00,  1.430821008866961E+00, -1.009840582255854E-02,  1.037927593926391E-02,  4.697978850540491E-03,  1.391230000662882E-02,  2.408840074301579E+00,  1.014413006153736E-02,
2458473.500000000, A.D. 2018-Dec-21 00:00:00.0000,  8.253742149370893E-02,  2.066277129196481E+00,  1.493748505737163E+00, -1.014066726805503E-02,  9.836725034725874E-03,  4.300213423490550E-03,  1.473334409271016E-02,  2.550999450995489E+00,  1.015752974877976E-02,
2458487.500000000, A.D. 2019-Jan-04 00:00:00.0000, -5.949192393133509E-02,  2.200499575359412E+00,  1.551448073234364E+00, -1.014371154465065E-02,  9.346063981982495E-03,  3.949863288404251E-03,  1.555398535112395E-02,  2.693089080240872E+00,  1.013612461906479E-02,
2458501.500000000, A.D. 2019-Jan-18 00:00:00.0000, -2.013545439076473E-01,  2.328181871037233E+00,  1.604532952818358E+00, -1.011838254347863E-02,  8.901478993851733E-03,  3.639894455353534E-03,  1.637183775572102E-02,  2.834695834416576E+00,  1.008996258863586E-02,
2458515.500000000, A.D. 2019-Feb-01 00:00:00.0000, -3.427114540619283E-01,  2.449930817968147E+00,  1.653525688606699E+00, -1.007258805331187E-02,  8.497590987117692E-03,  3.364365737613964E-03,  1.718520920926135E-02,  2.975526735967529E+00,  1.002631438263904E-02,
2458529.500000000, A.D. 2019-Feb-15 00:00:00.0000, -4.833187754894758E-01,  2.566281742986778E+00,  1.698872553226428E+00, -1.001212162978945E-02,  8.129577369915065E-03,  3.118298469986165E-03,  1.799291059838552E-02,  3.115375896297906E+00,  9.950460253941756E-03,
2458543.500000000, A.D. 2019-Mar-01 00:00:00.0000, -6.230024443870632E-01,  2.677706478964759E+00,  1.740956009408877E+00, -9.941243474742083E-03,  7.793188581738756E-03,  2.897531839693485E-03,  1.879411868371886E-02,  3.254100775928580E+00,  9.866248226972515E-03,
2458557.500000000, A.D. 2019-Mar-15 00:00:00.0000, -7.616398167672601E-01,  2.784621291221739E+00,  1.780105201914836E+00, -9.863101881696593E-03,  7.484730110834332E-03,  2.698589121437190E-03,  1.958827770182587E-02,  3.391605147403652E+00,  9.776504347475200E-03,
2458571.500000000, A.D. 2019-Mar-29 00:00:00.0000, -8.991464654113227E-01,  2.887394215891347E+00,  1.816604693841798E+00, -9.780047697582566E-03,  7.200991689053892E-03,  2.518559446964127E-03,  2.037502868678464E-02,  3.527826857700436E+00,  9.683305151158521E-03,
2458585.500000000, A.D. 2019-Apr-12 00:00:00.0000, -1.035466452580384E+00,  2.986351352987326E+00,  1.850701650120059E+00, -9.693828983502179E-03,  6.939185994763652E-03,  2.354996129510634E-03,  2.115415694377232E-02,  3.662728733562690E+00,  9.588173182105419E-03,
2458599.500000000, A.D. 2019-Apr-26 00:00:00.0000, -1.170565045353160E+00,  3.081782467482848E+00,  1.882611748562448E+00, -9.605749810576667E-03,  6.696900323565905E-03,  2.205835373571477E-03,  2.192555384644210E-02,  3.796291966921495E+00,  9.492230015494983E-03,
2458613.500000000, A.D. 2019-May-10 00:00:00.0000, -1.304423354955994E+00,  3.173945848265935E+00,  1.912524053760306E+00, -9.516785555036189E-03,  6.472042118304287E-03,  2.069328934764663E-03,  2.268918885100625E-02,  3.928511269283947E+00,  9.396299866768376E-03,
2458627.500000000, A.D. 2019-May-24 00:00:00.0000, -1.437034329823382E+00,  3.263072438675295E+00,  1.940605034545163E+00, -9.427662208480335E-03,  6.262790142065366E-03,  1.943988727337456E-03,  2.344508856793651E-02,  4.059391248110399E+00,  9.300982376185308E-03,
2458641.500000000, A.D. 2019-Jun-07 00:00:00.0000, -1.568399658551622E+00,  3.349369403809603E+00,  1.967001882820230E+00, -9.338912881796313E-03,  6.067566213048745E-03,  1.828542767270363E-03,  2.419332111310649E-02,  4.188943697298767E+00,  9.206716121664429E-03,
2458655.500000000, A.D. 2019-Jun-21 00:00:00.0000, -1.698527553388292E+00,  3.433023322499218E+00,  1.991845293084940E+00, -9.250944502326254E-03,  5.884996790949195E-03,  1.721900515040146E-03,  2.493398534170067E-02,  4.317185733093657E+00,  9.113824893532419E-03,
